{
  "type": "FeatureCollection",
  "features": [
    {
      "type": "Feature",
      "properties": {
        "norad_id": 67102,
        "name": "STARLINK-36255",
        "group": "last-30-days",
        "lat": -26.872954460380377,
        "lon": -144.90390745264463,
        "alt_km": 306.4889560360598,
        "timestamp": "2025-12-23T22:42:31.704692+00:00",
        "meta_object_name": "STARLINK-36255",
        "meta_object_id": "2025-299A",
        "meta_epoch": "2025-12-23T06:00:00.999648",
        "meta_mean_motion": 15.91566994,
        "meta_eccentricity": 0.00018302,
        "meta_inclination": 42.9979,
        "meta_ra_of_asc_node": 252.3624,
        "meta_arg_of_pericenter": 267.2838,
        "meta_mean_anomaly": 20.72,
        "meta_ephemeris_type": 0,
        "meta_classification_type": "U",
        "meta_norad_cat_id": 67102,
        "meta_element_set_no": 999,
        "meta_rev_at_epoch": 250,
        "meta_bstar": -0.0059515285,
        "meta_mean_motion_dot": -0.01988249,
        "meta_mean_motion_ddot": 0.0010637972,
        "tle_line1": "1 67102U 25299A   25357.25001157 -.01988249  10638-2 -59515-2 0  9996",
        "tle_line2": "2 67102  42.9979 252.3624 0001830 267.2838  20.7200 15.91566994  2503"
      },
      "geometry": {
        "type": "Point",
        "coordinates": [
          -144.90390745264463,
          -26.872954460380377
        ]
      }
    },
    {
      "type": "Feature",
      "properties": {
        "norad_id": 67103,
        "name": "STARLINK-36256",
        "group": "last-30-days",
        "lat": -26.173573734777992,
        "lon": -143.79646520687493,
        "alt_km": 306.3986043109853,
        "timestamp": "2025-12-23T22:42:31.704702+00:00",
        "meta_object_name": "STARLINK-36256",
        "meta_object_id": "2025-299B",
        "meta_epoch": "2025-12-23T06:00:00.999648",
        "meta_mean_motion": 15.91588554,
        "meta_eccentricity": 0.00018263,
        "meta_inclination": 42.9979,
        "meta_ra_of_asc_node": 252.3596,
        "meta_arg_of_pericenter": 268.0038,
        "meta_mean_anomaly": 21.1675,
        "meta_ephemeris_type": 0,
        "meta_classification_type": "U",
        "meta_norad_cat_id": 67103,
        "meta_element_set_no": 999,
        "meta_rev_at_epoch": 250,
        "meta_bstar": -0.0059552713,
        "meta_mean_motion_dot": -0.01991676,
        "meta_mean_motion_ddot": 0.0010674525,
        "tle_line1": "1 67103U 25299B   25357.25001157 -.01991676  10675-2 -59553-2 0  9998",
        "tle_line2": "2 67103  42.9979 252.3596 0001826 268.0038  21.1675 15.91588554  2505"
      },
      "geometry": {
        "type": "Point",
        "coordinates": [
          -143.79646520687493,
          -26.173573734777992
        ]
      }
    },
    {
      "type": "Feature",
      "properties": {
        "norad_id": 67104,
        "name": "STARLINK-36258",
        "group": "last-30-days",
        "lat": -25.352228260134986,
        "lon": -142.5293855756006,
        "alt_km": 306.2392445663827,
        "timestamp": "2025-12-23T22:42:31.704714+00:00",
        "meta_object_name": "STARLINK-36258",
        "meta_object_id": "2025-299C",
        "meta_epoch": "2025-12-23T06:00:00.999648",
        "meta_mean_motion": 15.91608373,
        "meta_eccentricity": 0.00020797,
        "meta_inclination": 42.9979,
        "meta_ra_of_asc_node": 252.3561,
        "meta_arg_of_pericenter": 267.5231,
        "meta_mean_anomaly": 23.0204,
        "meta_ephemeris_type": 0,
        "meta_classification_type": "U",
        "meta_norad_cat_id": 67104,
        "meta_element_set_no": 999,
        "meta_rev_at_epoch": 250,
        "meta_bstar": -0.0059769681,
        "meta_mean_motion_dot": -0.0200096,
        "meta_mean_motion_ddot": 0.0010769802,
        "tle_line1": "1 67104U 25299C   25357.25001157 -.02000960  10770-2 -59770-2 0  9994",
        "tle_line2": "2 67104  42.9979 252.3561 0002079 267.5231  23.0204 15.91608373  2509"
      },
      "geometry": {
        "type": "Point",
        "coordinates": [
          -142.5293855756006,
          -25.352228260134986
        ]
      }
    },
    {
      "type": "Feature",
      "properties": {
        "norad_id": 67105,
        "name": "STARLINK-36261",
        "group": "last-30-days",
        "lat": -24.677709167720966,
        "lon": -141.51371654467962,
        "alt_km": 306.1931560993189,
        "timestamp": "2025-12-23T22:42:31.704725+00:00",
        "meta_object_name": "STARLINK-36261",
        "meta_object_id": "2025-299D",
        "meta_epoch": "2025-12-23T06:00:00.999648",
        "meta_mean_motion": 15.91626322,
        "meta_eccentricity": 0.00019535,
        "meta_inclination": 42.9979,
        "meta_ra_of_asc_node": 252.3534,
        "meta_arg_of_pericenter": 267.4713,
        "meta_mean_anomaly": 24.1557,
        "meta_ephemeris_type": 0,
        "meta_classification_type": "U",
        "meta_norad_cat_id": 67105,
        "meta_element_set_no": 999,
        "meta_rev_at_epoch": 250,
        "meta_bstar": -0.0059412816,
        "meta_mean_motion_dot": -0.01990944,
        "meta_mean_motion_ddot": 0.0010671189,
        "tle_line1": "1 67105U 25299D   25357.25001157 -.01990944  10671-2 -59413-2 0  9998",
        "tle_line2": "2 67105  42.9979 252.3534 0001953 267.4713  24.1557 15.91626322  2501"
      },
      "geometry": {
        "type": "Point",
        "coordinates": [
          -141.51371654467962,
          -24.677709167720966
        ]
      }
    },
    {
      "type": "Feature",
      "properties": {
        "norad_id": 67106,
        "name": "STARLINK-36259",
        "group": "last-30-days",
        "lat": -22.759511856841158,
        "lon": -138.73546161647317,
        "alt_km": 305.9451313429163,
        "timestamp": "2025-12-23T22:42:31.704735+00:00",
        "meta_object_name": "STARLINK-36259",
        "meta_object_id": "2025-299E",
        "meta_epoch": "2025-12-23T06:00:00.999648",
        "meta_mean_motion": 15.91639432,
        "meta_eccentricity": 0.00019427,
        "meta_inclination": 42.998,
        "meta_ra_of_asc_node": 252.3453,
        "meta_arg_of_pericenter": 271.9735,
        "meta_mean_anomaly": 22.8102,
        "meta_ephemeris_type": 0,
        "meta_classification_type": "U",
        "meta_norad_cat_id": 67106,
        "meta_element_set_no": 999,
        "meta_rev_at_epoch": 250,
        "meta_bstar": -0.0059266634,
        "meta_mean_motion_dot": -0.01987435,
        "meta_mean_motion_ddot": 0.0010637464,
        "tle_line1": "1 67106U 25299E   25357.25001157 -.01987435  10637-2 -59267-2 0  9999",
        "tle_line2": "2 67106  42.9980 252.3453 0001942 271.9735  22.8102 15.91639432  2503"
      },
      "geometry": {
        "type": "Point",
        "coordinates": [
          -138.73546161647317,
          -22.759511856841158
        ]
      }
    },
    {
      "type": "Feature",
      "properties": {
        "norad_id": 67107,
        "name": "STARLINK-36196",
        "group": "last-30-days",
        "lat": -23.782211192850863,
        "lon": -140.19731158436022,
        "alt_km": 306.2120768896766,
        "timestamp": "2025-12-23T22:42:31.704745+00:00",
        "meta_object_name": "STARLINK-36196",
        "meta_object_id": "2025-299F",
        "meta_epoch": "2025-12-23T06:00:00.999648",
        "meta_mean_motion": 15.91638253,
        "meta_eccentricity": 0.00019486,
        "meta_inclination": 42.998,
        "meta_ra_of_asc_node": 252.3497,
        "meta_arg_of_pericenter": 265.1967,
        "meta_mean_anomaly": 27.9064,
        "meta_ephemeris_type": 0,
        "meta_classification_type": "U",
        "meta_norad_cat_id": 67107,
        "meta_element_set_no": 999,
        "meta_rev_at_epoch": 250,
        "meta_bstar": -0.0059483092,
        "meta_mean_motion_dot": -0.01994484,
        "meta_mean_motion_ddot": 0.0010707938,
        "tle_line1": "1 67107U 25299F   25357.25001157 -.01994484  10708-2 -59483-2 0  9991",
        "tle_line2": "2 67107  42.9980 252.3497 0001948 265.1967  27.9064 15.91638253  2503"
      },
      "geometry": {
        "type": "Point",
        "coordinates": [
          -140.19731158436022,
          -23.782211192850863
        ]
      }
    },
    {
      "type": "Feature",
      "properties": {
        "norad_id": 67108,
        "name": "STARLINK-36208",
        "group": "last-30-days",
        "lat": -21.731379450755195,
        "lon": -137.3058229962182,
        "alt_km": 305.9802705000193,
        "timestamp": "2025-12-23T22:42:31.704763+00:00",
        "meta_object_name": "STARLINK-36208",
        "meta_object_id": "2025-299G",
        "meta_epoch": "2025-12-23T06:00:00.999648",
        "meta_mean_motion": 15.91655443,
        "meta_eccentricity": 0.00019751,
        "meta_inclination": 42.9981,
        "meta_ra_of_asc_node": 252.3412,
        "meta_arg_of_pericenter": 268.6784,
        "meta_mean_anomaly": 27.7618,
        "meta_ephemeris_type": 0,
        "meta_classification_type": "U",
        "meta_norad_cat_id": 67108,
        "meta_element_set_no": 999,
        "meta_rev_at_epoch": 250,
        "meta_bstar": -0.0059568692,
        "meta_mean_motion_dot": -0.01999084,
        "meta_mean_motion_ddot": 0.0010755967,
        "tle_line1": "1 67108U 25299G   25357.25001157 -.01999084  10756-2 -59569-2 0  9991",
        "tle_line2": "2 67108  42.9981 252.3412 0001975 268.6784  27.7618 15.91655443  2500"
      },
      "geometry": {
        "type": "Point",
        "coordinates": [
          -137.3058229962182,
          -21.731379450755195
        ]
      }
    }
  ]
}